STARLINK-1443
1 25660C 20035D   21325.17865543  .00007752  00000-0  51944-3 0  3253
2 25660  53.0532 272.4407 0001788  73.5587 237.1288 15.06387217    18
